HAWK-7A                 
1 56191U 23054P   26068.68910991  .00007758  00000+0  30248-3 0  9997
2 56191  97.2827 318.5579 0004249  51.2619 308.8999 15.26207271161849
STARLINK-36459          
1 67427U 26005Z   26067.90815215  .00033927  00000+0  12378-2 0  9997
2 67427  43.0005 242.6774 0001488 264.8725  95.1957 15.27551516  8560
